{"type": "FeatureCollection", "features": [ {"type": "Feature", "properties": {"norad_id": 45807, "name": "BEIDOU-3 G3 (C61)", "group": "gnss", "lat": -0.16808138008854367, "lon": 61.24761811393771, "alt_km": 35767.38697016334, "timestamp": "2025-12-21T14:40:48.160380+00:00", "meta": {"OBJECT_NAME": "BEIDOU-3 G3 (C61)", "OBJECT_ID": "2020-040A", "EPOCH": "2025-12-21T06:52:13.236384", "MEAN_MOTION": 1.0026998, "ECCENTRICITY": 0.00064971, "INCLINATION": 2.0108, "RA_OF_ASC_NODE": 66.6553, "ARG_OF_PERICENTER": 309.377, "MEAN_ANOMALY": 287.7025, "EPHEMERIS_TYPE": 0, "CLASSIFICATION_TYPE": "U", "NORAD_CAT_ID": 45807, "ELEMENT_SET_NO": 999, "REV_AT_EPOCH": 2028, "BSTAR": 0, "MEAN_MOTION_DOT": -3.32e-06, "MEAN_MOTION_DDOT": 0}, "tle": {"line1": "1 45807U 20040A   25355.28626431 -.00000332  00000+0  00000+0 0  9999", "line2": "2 45807   2.0108  66.6553 0006497 309.3770 287.7025  1.00269980 20281"}}, "geometry": {"type": "Point", "coordinates": [61.24761811393771, -0.16808138008854367]}}, {"type": "Feature", "properties": {"norad_id": 45854, "name": "GPS BIII-3  (PRN 23)", "group": "gnss", "lat": -56.53784425483076, "lon": -52.42957803424398, "alt_km": 20124.827418910758, "timestamp": "2025-12-21T14:40:48.160391+00:00", "meta": {"OBJECT_NAME": "GPS BIII-3  (PRN 23)", "OBJECT_ID": "2020-041A", "EPOCH": "2025-12-20T05:44:36.632832", "MEAN_MOTION": 2.00561934, "ECCENTRICITY": 0.00606224, "INCLINATION": 56.5518, "RA_OF_ASC_NODE": 35.8938, "ARG_OF_PERICENTER": 203.675, "MEAN_ANOMALY": 155.7759, "EPHEMERIS_TYPE": 0, "CLASSIFICATION_TYPE": "U", "NORAD_CAT_ID": 45854, "ELEMENT_SET_NO": 999, "REV_AT_EPOCH": 4044, "BSTAR": 0, "MEAN_MOTION_DOT": -5.8e-07, "MEAN_MOTION_DDOT": 0}, "tle": {"line1": "1 45854U 20041A   25354.23931288 -.00000058  00000+0  00000+0 0  9990", "line2": "2 45854  56.5518  35.8938 0060622 203.6750 155.7759  2.00561934 40444"}}, "geometry": {"type": "Point", "coordinates": [-52.42957803424398, -56.53784425483076]}}, {"type": "Feature", "properties": {"norad_id": 46114, "name": "GALAXY 30 (WAAS/PRN 135)", "group": "gnss", "lat": -0.009084521428245498, "lon": -174.3777793482936, "alt_km": 35784.96521672952, "timestamp": "2025-12-21T14:40:48.160405+00:00", "meta": {"OBJECT_NAME": "GALAXY 30 (WAAS/PRN 135)", "OBJECT_ID": "2020-056C", "EPOCH": "2025-12-21T00:37:13.930752", "MEAN_MOTION": 1.00273357, "ECCENTRICITY": 0.00020294, "INCLINATION": 0.0178, "RA_OF_ASC_NODE": 349.0054, "ARG_OF_PERICENTER": 282.3653, "MEAN_ANOMALY": 62.8096, "EPHEMERIS_TYPE": 0, "CLASSIFICATION_TYPE": "U", "NORAD_CAT_ID": 46114, "ELEMENT_SET_NO": 999, "REV_AT_EPOCH": 1950, "BSTAR": 0, "MEAN_MOTION_DOT": 6e-07, "MEAN_MOTION_DDOT": 0}, "tle": {"line1": "1 46114U 20056C   25355.02585568  .00000060  00000+0  00000+0 0  9992", "line2": "2 46114   0.0178 349.0054 0002029 282.3653  62.8096  1.00273357 19505"}}, "geometry": {"type": "Point", "coordinates": [-174.3777793482936, -0.009084521428245498]}}, {"type": "Feature", "properties": {"norad_id": 46805, "name": "COSMOS 2547 (705K)", "group": "gnss", "lat": 33.096755245621765, "lon": -143.54002797636974, "alt_km": 19141.60964257189, "timestamp": "2025-12-21T14:40:48.160417+00:00", "meta": {"OBJECT_NAME": "COSMOS 2547 (705K)", "OBJECT_ID": "2020-075A", "EPOCH": "2025-12-19T05:12:13.762080", "MEAN_MOTION": 2.13100175, "ECCENTRICITY": 0.0006125, "INCLINATION": 64.5965, "RA_OF_ASC_NODE": 198.4802, "ARG_OF_PERICENTER": 227.9307, "MEAN_ANOMALY": 132.0972, "EPHEMERIS_TYPE": 0, "CLASSIFICATION_TYPE": "U", "NORAD_CAT_ID": 46805, "ELEMENT_SET_NO": 999, "REV_AT_EPOCH": 4007, "BSTAR": 0, "MEAN_MOTION_DOT": 1.06e-06, "MEAN_MOTION_DDOT": 0}, "tle": {"line1": "1 46805U 20075A   25353.21682595  .00000106  00000+0  00000+0 0  9998", "line2": "2 46805  64.5965 198.4802 0006125 227.9307 132.0972  2.13100175 40071"}}, "geometry": {"type": "Point", "coordinates": [-143.54002797636974, 33.096755245621765]}}, {"type": "Feature", "properties": {"norad_id": 46826, "name": "GPS BIII-4  (PRN 14)", "group": "gnss", "lat": -45.57333715963716, "lon": 85.83205414024917, "alt_km": 20051.557178589374, "timestamp": "2025-12-21T14:40:48.160428+00:00", "meta": {"OBJECT_NAME": "GPS BIII-4  (PRN 14)", "OBJECT_ID": "2020-078A", "EPOCH": "2025-12-16T01:06:13.902336", "MEAN_MOTION": 2.00566891, "ECCENTRICITY": 0.0064755, "INCLINATION": 54.0145, "RA_OF_ASC_NODE": 218.2068, "ARG_OF_PERICENTER": 203.3828, "MEAN_ANOMALY": 339.3936, "EPHEMERIS_TYPE": 0, "CLASSIFICATION_TYPE": "U", "NORAD_CAT_ID": 46826, "ELEMENT_SET_NO": 999, "REV_AT_EPOCH": 3783, "BSTAR": 0, "MEAN_MOTION_DOT": 6.7e-07, "MEAN_MOTION_DDOT": 0}, "tle": {"line1": "1 46826U 20078A   25350.04599424  .00000067  00000+0  00000+0 0  9996", "line2": "2 46826  54.0145 218.2068 0064755 203.3828 339.3936  2.00566891 37831"}}, "geometry": {"type": "Point", "coordinates": [85.83205414024917, -45.57333715963716]}}, {"type": "Feature", "properties": {"norad_id": 48859, "name": "GPS BIII-5  (PRN 11)", "group": "gnss", "lat": 48.82403237198669, "lon": 32.089639247983634, "alt_km": 20241.240789445357, "timestamp": "2025-12-21T14:40:48.160440+00:00", "meta": {"OBJECT_NAME": "GPS BIII-5  (PRN 11)", "OBJECT_ID": "2021-054A", "EPOCH": "2025-12-08T04:14:32.423424", "MEAN_MOTION": 2.00553627, "ECCENTRICITY": 0.0024678, "INCLINATION": 55.2581, "RA_OF_ASC_NODE": 340.1367, "ARG_OF_PERICENTER": 233.3993, "MEAN_ANOMALY": 212.8594, "EPHEMERIS_TYPE": 0, "CLASSIFICATION_TYPE": "U", "NORAD_CAT_ID": 48859, "ELEMENT_SET_NO": 999, "REV_AT_EPOCH": 3292, "BSTAR": 0, "MEAN_MOTION_DOT": -8.6e-07, "MEAN_MOTION_DDOT": 0}, "tle": {"line1": "1 48859U 21054A   25342.17676416 -.00000086  00000+0  00000+0 0  9993", "line2": "2 48859  55.2581 340.1367 0024678 233.3993 212.8594  2.00553627 32922"}}, "geometry": {"type": "Point", "coordinates": [32.089639247983634, 48.82403237198669]}}, {"type": "Feature", "properties": {"norad_id": 49336, "name": "QZS-1R (QZSS/PRN 196)", "group": "gnss", "lat": 6.748191585038899, "lon": 91.22004216729525, "alt_km": 36100.704043827805, "timestamp": "2025-12-21T14:40:48.160451+00:00", "meta": {"OBJECT_NAME": "QZS-1R (QZSS/PRN 196)", "OBJECT_ID": "2021-096A", "EPOCH": "2025-12-18T14:04:25.772160", "MEAN_MOTION": 1.00255833, "ECCENTRICITY": 0.07566602, "INCLINATION": 37.0895, "RA_OF_ASC_NODE": 82.273, "ARG_OF_PERICENTER": 271.433, "MEAN_ANOMALY": 79.2664, "EPHEMERIS_TYPE": 0, "CLASSIFICATION_TYPE": "U", "NORAD_CAT_ID": 49336, "ELEMENT_SET_NO": 999, "REV_AT_EPOCH": 1519, "BSTAR": 0, "MEAN_MOTION_DOT": -2.72e-06, "MEAN_MOTION_DDOT": 0}, "tle": {"line1": "1 49336U 21096A   25352.58640940 -.00000272  00000+0  00000+0 0  9996", "line2": "2 49336  37.0895  82.2730 0756660 271.4330  79.2664  1.00255833 15198"}}, "geometry": {"type": "Point", "coordinates": [91.22004216729525, 6.748191585038899]}}, {"type": "Feature", "properties": {"norad_id": 49809, "name": "GSAT0223 (GALILEO 27)", "group": "gnss", "lat": -31.115536969955663, "lon": -170.64290611168778, "alt_km": 23215.446068391524, "timestamp": "2025-12-21T14:40:48.160469+00:00", "meta": {"OBJECT_NAME": "GSAT0223 (GALILEO 27)", "OBJECT_ID": "2021-116A", "EPOCH": "2025-12-19T11:56:47.637312", "MEAN_MOTION": 1.7047609, "ECCENTRICITY": 0.00044147, "INCLINATION": 57.2179, "RA_OF_ASC_NODE": 346.5305, "ARG_OF_PERICENTER": 254.6091, "MEAN_ANOMALY": 105.9777, "EPHEMERIS_TYPE": 0, "CLASSIFICATION_TYPE": "U", "NORAD_CAT_ID": 49809, "ELEMENT_SET_NO": 999, "REV_AT_EPOCH": 2512, "BSTAR": 0, "MEAN_MOTION_DOT": -7.2e-07, "MEAN_MOTION_DDOT": 0}, "tle": {"line1": "1 49809U 21116A   25353.49777358 -.00000072  00000+0  00000+0 0  9997", "line2": "2 49809  57.2179 346.5305 0004414 254.6091 105.9777  1.70476090 25129"}}, "geometry": {"type": "Point", "coordinates": [-170.64290611168778, -31.115536969955663]}}, {"type": "Feature", "properties": {"norad_id": 49810, "name": "GSAT0224 (GALILEO 28)", "group": "gnss", "lat": -24.401935008413506, "lon": -30.538555309361627, "alt_km": 23221.550474129323, "timestamp": "2025-12-21T14:40:48.160483+00:00", "meta": {"OBJECT_NAME": "GSAT0224 (GALILEO 28)", "OBJECT_ID": "2021-116B", "EPOCH": "2025-12-20T04:43:34.979232", "MEAN_MOTION": 1.70476091, "ECCENTRICITY": 0.0003747, "INCLINATION": 57.2188, "RA_OF_ASC_NODE": 346.5104, "ARG_OF_PERICENTER": 259.7047, "MEAN_ANOMALY": 282.5653, "EPHEMERIS_TYPE": 0, "CLASSIFICATION_TYPE": "U", "NORAD_CAT_ID": 49810, "ELEMENT_SET_NO": 999, "REV_AT_EPOCH": 2515, "BSTAR": 0, "MEAN_MOTION_DOT": -7e-07, "MEAN_MOTION_DDOT": 0}, "tle": {"line1": "1 49810U 21116B   25354.19693263 -.00000070  00000+0  00000+0 0  9997", "line2": "2 49810  57.2188 346.5104 0003747 259.7047 282.5653  1.70476091 25152"}}, "geometry": {"type": "Point", "coordinates": [-30.538555309361627, -24.401935008413506]}}, {"type": "Feature", "properties": {"norad_id": 52984, "name": "COSMOS 2557 (706K)", "group": "gnss", "lat": -64.40069573278156, "lon": -128.48135777216999, "alt_km": 19102.23067789009, "timestamp": "2025-12-21T14:40:48.160497+00:00", "meta": {"OBJECT_NAME": "COSMOS 2557 (706K)", "OBJECT_ID": "2022-075A", "EPOCH": "2025-12-20T07:41:36.547296", "MEAN_MOTION": 2.13102072, "ECCENTRICITY": 0.0013536, "INCLINATION": 64.4056, "RA_OF_ASC_NODE": 320.785, "ARG_OF_PERICENTER": 278.2438, "MEAN_ANOMALY": 81.5952, "EPHEMERIS_TYPE": 0, "CLASSIFICATION_TYPE": "U", "NORAD_CAT_ID": 52984, "ELEMENT_SET_NO": 999, "REV_AT_EPOCH": 2690, "BSTAR": 0, "MEAN_MOTION_DOT": -5.4e-07, "MEAN_MOTION_DDOT": 0}, "tle": {"line1": "1 52984U 22075A   25354.32056189 -.00000054  00000+0  00000+0 0  9995", "line2": "2 52984  64.4056 320.7850 0013536 278.2438  81.5952  2.13102072 26907"}}, "geometry": {"type": "Point", "coordinates": [-128.48135777216999, -64.40069573278156]}}]}